{
  "type": "FeatureCollection",
  "features": [
    {
      "type": "Feature",
      "properties": {
        "norad_id": 38833,
        "name": "GPS BIIF-3  (PRN 24)",
        "group": "gps-ops",
        "lat": 2.836910716241835,
        "lon": 152.8107819114373,
        "alt_km": 19946.710590178653,
        "timestamp": "2025-12-25T07:41:09.981977+00:00",
        "meta_object_name": "GPS BIIF-3  (PRN 24)",
        "meta_object_id": "2012-053A",
        "meta_epoch": "2025-12-24T07:38:21.199488",
        "meta_mean_motion": 2.00565058,
        "meta_eccentricity": 0.01760755,
        "meta_inclination": 53.5598,
        "meta_ra_of_asc_node": 150.7645,
        "meta_arg_of_pericenter": 64.1634,
        "meta_mean_anomaly": 297.6191,
        "meta_ephemeris_type": 0,
        "meta_classification_type": "U",
        "meta_norad_cat_id": 38833,
        "meta_element_set_no": 999,
        "meta_rev_at_epoch": 9593,
        "meta_bstar": 0,
        "meta_mean_motion_dot": 8.3e-07,
        "meta_mean_motion_ddot": 0,
        "tle_line1": "1 38833U 12053A   25358.31830092  .00000083  00000+0  00000+0 0  9994",
        "tle_line2": "2 38833  53.5598 150.7645 0176075  64.1634 297.6191  2.00565058 95932"
      },
      "geometry": {
        "type": "Point",
        "coordinates": [
          152.8107819114373,
          2.836910716241835
        ]
      }
    },
    {
      "type": "Feature",
      "properties": {
        "norad_id": 39166,
        "name": "GPS BIIF-4  (PRN 27)",
        "group": "gps-ops",
        "lat": 52.30680071699412,
        "lon": 29.463005993347313,
        "alt_km": 19963.237091748528,
        "timestamp": "2025-12-25T07:41:09.981988+00:00",
        "meta_object_name": "GPS BIIF-4  (PRN 27)",
        "meta_object_id": "2013-023A",
        "meta_epoch": "2025-12-24T04:22:45.402816",
        "meta_mean_motion": 2.00564584,
        "meta_eccentricity": 0.01386043,
        "meta_inclination": 54.6422,
        "meta_ra_of_asc_node": 276.1031,
        "meta_arg_of_pericenter": 48.7593,
        "meta_mean_anomaly": 312.474,
        "meta_ephemeris_type": 0,
        "meta_classification_type": "U",
        "meta_norad_cat_id": 39166,
        "meta_element_set_no": 999,
        "meta_rev_at_epoch": 9237,
        "meta_bstar": 0,
        "meta_mean_motion_dot": -1.6e-07,
        "meta_mean_motion_ddot": 0,
        "tle_line1": "1 39166U 13023A   25358.18246994 -.00000016  00000+0  00000+0 0  9996",
        "tle_line2": "2 39166  54.6422 276.1031 0138604  48.7593 312.4740  2.00564584 92374"
      },
      "geometry": {
        "type": "Point",
        "coordinates": [
          29.463005993347313,
          52.30680071699412
        ]
      }
    },
    {
      "type": "Feature",
      "properties": {
        "norad_id": 39533,
        "name": "GPS BIIF-5  (PRN 30)",
        "group": "gps-ops",
        "lat": 51.253052052033304,
        "lon": -90.4121107399043,
        "alt_km": 20287.129472045566,
        "timestamp": "2025-12-25T07:41:09.981999+00:00",
        "meta_object_name": "GPS BIIF-5  (PRN 30)",
        "meta_object_id": "2014-008A",
        "meta_epoch": "2025-12-23T16:16:25.020768",
        "meta_mean_motion": 2.00548852,
        "meta_eccentricity": 0.00795532,
        "meta_inclination": 53.5993,
        "meta_ra_of_asc_node": 156.4877,
        "meta_arg_of_pericenter": 225.9161,
        "meta_mean_anomaly": 133.4108,
        "meta_ephemeris_type": 0,
        "meta_classification_type": "U",
        "meta_norad_cat_id": 39533,
        "meta_element_set_no": 999,
        "meta_rev_at_epoch": 8616,
        "meta_bstar": 0,
        "meta_mean_motion_dot": 8.2e-07,
        "meta_mean_motion_ddot": 0,
        "tle_line1": "1 39533U 14008A   25357.67806737  .00000082  00000+0  00000+0 0  9990",
        "tle_line2": "2 39533  53.5993 156.4877 0079553 225.9161 133.4108  2.00548852 86167"
      },
      "geometry": {
        "type": "Point",
        "coordinates": [
          -90.4121107399043,
          51.253052052033304
        ]
      }
    },
    {
      "type": "Feature",
      "properties": {
        "norad_id": 39741,
        "name": "GPS BIIF-6  (PRN 06)",
        "group": "gps-ops",
        "lat": -55.38824221111187,
        "lon": -128.69023015007429,
        "alt_km": 20133.750111790636,
        "timestamp": "2025-12-25T07:41:09.982011+00:00",
        "meta_object_name": "GPS BIIF-6  (PRN 06)",
        "meta_object_id": "2014-026A",
        "meta_epoch": "2025-12-23T23:04:28.197408",
        "meta_mean_motion": 2.00560539,
        "meta_eccentricity": 0.00394575,
        "meta_inclination": 56.5792,
        "meta_ra_of_asc_node": 338.3401,
        "meta_arg_of_pericenter": 319.314,
        "meta_mean_anomaly": 40.3969,
        "meta_ephemeris_type": 0,
        "meta_classification_type": "U",
        "meta_norad_cat_id": 39741,
        "meta_element_set_no": 999,
        "meta_rev_at_epoch": 8502,
        "meta_bstar": 0,
        "meta_mean_motion_dot": -6e-07,
        "meta_mean_motion_ddot": 0,
        "tle_line1": "1 39741U 14026A   25357.96143747 -.00000060  00000+0  00000+0 0  9995",
        "tle_line2": "2 39741  56.5792 338.3401 0039457 319.3140  40.3969  2.00560539 85027"
      },
      "geometry": {
        "type": "Point",
        "coordinates": [
          -128.69023015007429,
          -55.38824221111187
        ]
      }
    },
    {
      "type": "Feature",
      "properties": {
        "norad_id": 40105,
        "name": "GPS BIIF-7  (PRN 09)",
        "group": "gps-ops",
        "lat": -15.711419504931547,
        "lon": -73.34691724065917,
        "alt_km": 20166.944719049643,
        "timestamp": "2025-12-25T07:41:09.982022+00:00",
        "meta_object_name": "GPS BIIF-7  (PRN 09)",
        "meta_object_id": "2014-045A",
        "meta_epoch": "2025-12-23T13:11:32.096256",
        "meta_mean_motion": 2.00573211,
        "meta_eccentricity": 0.00324114,
        "meta_inclination": 55.2352,
        "meta_ra_of_asc_node": 95.4677,
        "meta_arg_of_pericenter": 120.1575,
        "meta_mean_anomaly": 240.1743,
        "meta_ephemeris_type": 0,
        "meta_classification_type": "U",
        "meta_norad_cat_id": 40105,
        "meta_element_set_no": 999,
        "meta_rev_at_epoch": 8255,
        "meta_bstar": 0,
        "meta_mean_motion_dot": 8e-08,
        "meta_mean_motion_ddot": 0,
        "tle_line1": "1 40105U 14045A   25357.54967704  .00000008  00000+0  00000+0 0  9994",
        "tle_line2": "2 40105  55.2352  95.4677 0032411 120.1575 240.1743  2.00573211 82556"
      },
      "geometry": {
        "type": "Point",
        "coordinates": [
          -73.34691724065917,
          -15.711419504931547
        ]
      }
    },
    {
      "type": "Feature",
      "properties": {
        "norad_id": 40294,
        "name": "GPS BIIF-8  (PRN 03)",
        "group": "gps-ops",
        "lat": -53.39629529033675,
        "lon": -23.839281144910327,
        "alt_km": 20315.892668753055,
        "timestamp": "2025-12-25T07:41:09.982034+00:00",
        "meta_object_name": "GPS BIIF-8  (PRN 03)",
        "meta_object_id": "2014-068A",
        "meta_epoch": "2025-12-23T10:16:22.808064",
        "meta_mean_motion": 2.00565491,
        "meta_eccentricity": 0.00608386,
        "meta_inclination": 56.8656,
        "meta_ra_of_asc_node": 37.7327,
        "meta_arg_of_pericenter": 68.9718,
        "meta_mean_anomaly": 291.747,
        "meta_ephemeris_type": 0,
        "meta_classification_type": "U",
        "meta_norad_cat_id": 40294,
        "meta_element_set_no": 999,
        "meta_rev_at_epoch": 8168,
        "meta_bstar": 0,
        "meta_mean_motion_dot": -4.8e-07,
        "meta_mean_motion_ddot": 0,
        "tle_line1": "1 40294U 14068A   25357.42804176 -.00000048  00000+0  00000+0 0  9993",
        "tle_line2": "2 40294  56.8656  37.7327 0060838  68.9718 291.7470  2.00565491 81685"
      },
      "geometry": {
        "type": "Point",
        "coordinates": [
          -23.839281144910327,
          -53.39629529033675
        ]
      }
    },
    {
      "type": "Feature",
      "properties": {
        "norad_id": 40534,
        "name": "GPS BIIF-9  (PRN 26)",
        "group": "gps-ops",
        "lat": -11.023666127616476,
        "lon": 39.76764035171701,
        "alt_km": 20442.387957188956,
        "timestamp": "2025-12-25T07:41:09.982045+00:00",
        "meta_object_name": "GPS BIIF-9  (PRN 26)",
        "meta_object_id": "2015-013A",
        "meta_epoch": "2025-12-24T13:19:21.575712",
        "meta_mean_motion": 2.00561869,
        "meta_eccentricity": 0.01074881,
        "meta_inclination": 53.1961,
        "meta_ra_of_asc_node": 211.4008,
        "meta_arg_of_pericenter": 38.768,
        "meta_mean_anomaly": 322.0719,
        "meta_ephemeris_type": 0,
        "meta_classification_type": "U",
        "meta_norad_cat_id": 40534,
        "meta_element_set_no": 999,
        "meta_rev_at_epoch": 7832,
        "meta_bstar": 0,
        "meta_mean_motion_dot": 7.7e-07,
        "meta_mean_motion_ddot": 0,
        "tle_line1": "1 40534U 15013A   25358.55511083  .00000077  00000+0  00000+0 0  9999",
        "tle_line2": "2 40534  53.1961 211.4008 0107488  38.7680 322.0719  2.00561869 78320"
      },
      "geometry": {
        "type": "Point",
        "coordinates": [
          39.76764035171701,
          -11.023666127616476
        ]
      }
    }
  ]
}